TRANSPORTER-10 OBJECT AD
1 59125U 24043AD  26068.86032889  .00011954  00000+0  36311-3 0  9997
2 59125  97.5470 207.3753 0008984 221.4908 138.5653 15.34189901112026
STARLINK-32334          
1 62023U 24213R   26068.52454244  .00026147  00000+0  89148-3 0  9999
2 62023  53.1610 168.6006 0001561 157.5927 202.5143 15.30212185 73136
